NORAD_CAT_ID,OBJECT_NAME,OBJECT_TYPE,EPOCH,MEAN_MOTION,ECCENTRICITY,INCLINATION,RA_OF_ASC_NODE,ARG_OF_PERICENTER,MEAN_ANOMALY,BSTAR,MEAN_MOTION_DOT,MEAN_MOTION_DDOT,TLE_LINE0,TLE_LINE1,TLE_LINE2,SEMIMAJOR_AXIS,PERIOD,APOGEE,PERIGEE,DECAYED
52338.0,STARLINK-3815,PAYLOAD,2023-04-03 00:50:55,15.15894485,0.0004016,53.2193,338.3696,170.4511,189.6562,0.0028821,0.0005598,0.0,0 STARLINK-3815,1 52338U 22045H   23093.03536577  .00055980  00000-0  28821-2 0  9997,2 52338  53.2193 338.3696 0004016 170.4511 189.6562 15.15894485 53885,6896.401,94.993,521.036,515.497,0.0
52338.0,STARLINK-3815,PAYLOAD,2023-04-03 21:25:07,15.16001085,0.0003992,53.2194,334.4806,174.5962,185.5077,0.0032403,0.00063232,0.0,0 STARLINK-3815,1 52338U 22045H   23093.89244482  .00063232  00000-0  32403-2 0  9992,2 52338  53.2194 334.4806 0003992 174.5962 185.5077 15.16001085 54012,6896.078,94.987,520.696,515.19,0.0
52338.0,STARLINK-3815,PAYLOAD,2023-04-04 00:34:59,15.16014678,0.0004012,53.219,333.8816,175.4394,184.6638,0.0031446,0.00061363,0.0,0 STARLINK-3815,1 52338U 22045H   23094.02429817  .00061363  00000-0  31446-2 0  9994,2 52338  53.2190 333.8816 0004012 175.4394 184.6638 15.16014678 54032,6896.037,94.986,520.668,515.135,0.0
52338.0,STARLINK-3815,PAYLOAD,2023-04-04 21:09:05,15.16097087,0.0003912,53.2183,329.9911,180.4002,179.699,0.0023349,0.00045489,0.0,0 STARLINK-3815,1 52338U 22045H   23094.88131572  .00045489  00000-0  23349-2 0  9990,2 52338  53.2183 329.9911 0003912 180.4002 179.6990 15.16097087 54160,6895.787,94.981,520.35,514.954,0.0
52338.0,STARLINK-3815,PAYLOAD,2023-04-05 00:18:57,15.16109587,0.0003952,53.2184,329.3927,180.8928,179.2061,0.0024322,0.00047427,0.0,0 STARLINK-3815,1 52338U 22045H   23095.01316030  .00047427  00000-0  24322-2 0  9996,2 52338  53.2184 329.3927 0003952 180.8928 179.2061 15.16109587 54183,6895.749,94.98,520.339,514.889,0.0
52338.0,STARLINK-3815,PAYLOAD,2023-04-05 08:13:35,15.16143004,0.0003926,53.2181,327.8969,182.3786,177.7192,0.0026311,0.00051409,0.0,0 STARLINK-3815,1 52338U 22045H   23095.34276670  .00051409  00000-0  26311-2 0  9992,2 52338  53.2181 327.8969 0003926 182.3786 177.7192 15.16143004 54235,6895.648,94.978,520.22,514.805,0.0
52338.0,STARLINK-3815,PAYLOAD,2023-04-05 20:52:58,15.16190992,0.0004016,53.2182,325.5032,184.4368,175.6592,0.0023298,0.00045512,0.0,0 STARLINK-3815,1 52338U 22045H   23095.87012379  .00045512  00000-0  23298-2 0  9993,2 52338  53.2182 325.5032 0004016 184.4368 175.6592 15.16190992 54310,6895.502,94.975,520.136,514.598,0.0
52338.0,STARLINK-3815,PAYLOAD,2023-04-06 00:02:49,15.16200239,0.0003895,53.2182,324.9036,184.0601,176.0363,0.0023236,0.00045401,0.0,0 STARLINK-3815,1 52338U 22045H   23096.00196108  .00045401  00000-0  23236-2 0  9991,2 52338  53.2182 324.9036 0003895 184.0601 176.0363 15.16200239 54336,6895.474,94.974,520.025,514.653,0.0
52338.0,STARLINK-3815,PAYLOAD,2023-04-06 23:46:37,15.16279755,0.0003877,53.2175,320.4137,188.8306,171.2622,0.0020453,0.00039986,0.0,0 STARLINK-3815,1 52338U 22045H   23096.99070641  .00039986  00000-0  20453-2 0  9991,2 52338  53.2175 320.4137 0003877 188.8306 171.2622 15.16279755 54485,6895.233,94.969,519.771,514.425,0.0
52338.0,STARLINK-3815,PAYLOAD,2023-04-07 14:00:51,15.16328813,0.0003855,53.2164,317.7196,191.6033,168.4874,0.0020818,0.00040767,0.0,0 STARLINK-3815,1 52338U 22045H   23097.58392858  .00040767  00000-0  20818-2 0  9998,2 52338  53.2164 317.7196 0003855 191.6033 168.4874 15.16328813 54579,6895.084,94.966,519.607,514.291,0.0
52338.0,STARLINK-3815,PAYLOAD,2023-04-08 02:40:09,15.16357387,0.0003867,53.2162,315.325,193.541,166.5482,0.0015823,0.00030894,0.0,0 STARLINK-3815,1 52338U 22045H   23098.11122433  .00030894  00000-0  15823-2 0  9998,2 52338  53.2162 315.3250 0003867 193.5410 166.5482 15.16357387 54656,6894.998,94.964,519.529,514.196,0.0
52338.0,STARLINK-3815,PAYLOAD,2023-04-08 13:44:32,15.16384905,0.0003838,53.2159,313.2297,195.5043,164.5836,0.0015711,0.00030696,0.0,0 STARLINK-3815,1 52338U 22045H   23098.57259924  .00030696  00000-0  15711-2 0  9990,2 52338  53.2159 313.2297 0003838 195.5043 164.5836 15.16384905 54727,6894.914,94.963,519.426,514.133,0.0
52338.0,STARLINK-3815,PAYLOAD,2023-04-09 11:53:15,15.16446709,0.0003771,53.2155,309.0385,199.2916,160.7937,0.0015124,0.00029585,0.0,0 STARLINK-3815,1 52338U 22045H   23099.49531986  .00029585  00000-0  15124-2 0  9996,2 52338  53.2155 309.0385 0003771 199.2916 160.7937 15.16446709 54866,6894.727,94.959,519.192,513.992,0.0
52338.0,STARLINK-3815,PAYLOAD,2023-04-09 13:28:10,15.16450984,0.0003788,53.2155,308.739,199.512,160.5731,0.0014913,0.0002917,0.0,0 STARLINK-3815,1 52338U 22045H   23099.56122698  .00029170  00000-0  14913-2 0  9995,2 52338  53.2155 308.7390 0003788 199.5120 160.5731 15.16450984 54877,6894.714,94.959,519.191,513.967,0.0
52338.0,STARLINK-3815,PAYLOAD,2023-04-09 19:47:47,15.16469829,0.000374,53.2155,307.5415,200.6964,159.3881,0.0016075,0.00031495,0.0,0 STARLINK-3815,1 52338U 22045H   23099.82485369  .00031495  00000-0  16075-2 0  9995,2 52338  53.2155 307.5415 0003740 200.6964 159.3881 15.16469829 54915,6894.657,94.957,519.1,513.943,0.0
52338.0,STARLINK-3815,PAYLOAD,2023-04-10 10:01:55,15.16514824,0.0003678,53.2152,304.8468,203.4382,156.6447,0.0018599,0.00036561,0.0,0 STARLINK-3815,1 52338U 22045H   23100.41800199  .00036561  00000-0  18599-2 0  9997,2 52338  53.2152 304.8468 0003678 203.4382 156.6447 15.16514824 55000,6894.521,94.955,518.921,513.85,0.0
52338.0,STARLINK-3815,PAYLOAD,2023-04-10 13:11:43,15.16527225,0.000367,53.2152,304.248,204.031,156.0515,0.0020085,0.00039538,0.0,0 STARLINK-3815,1 52338U 22045H   23100.54981031  .00039538  00000-0  20085-2 0  9996,2 52338  53.2152 304.2480 0003670 204.0310 156.0515 15.16527225 55029,6894.483,94.954,518.878,513.818,0.0
52338.0,STARLINK-3815,PAYLOAD,2023-04-10 21:06:13,15.16551506,0.0003599,53.2153,302.7511,205.758,154.3237,0.0019885,0.00039166,0.0,0 STARLINK-3815,1 52338U 22045H   23100.87932730  .00039166  00000-0  19885-2 0  9997,2 52338  53.2153 302.7511 0003599 205.7580 154.3237 15.16551506 55071,6894.409,94.952,518.756,513.793,0.0
52338.0,STARLINK-3815,PAYLOAD,2023-04-11 12:55:12,15.16600906,0.0003532,53.2152,299.7569,209.1736,150.9063,0.0018588,0.0003663,0.0,0 STARLINK-3815,1 52338U 22045H   23101.53834481  .00036630  00000-0  18588-2 0  9997,2 52338  53.2152 299.7569 0003532 209.1736 150.9063 15.16600906 55175,6894.26,94.949,518.56,513.69,0.0
52338.0,STARLINK-3815,PAYLOAD,2023-04-11 19:14:48,15.16618276,0.0003498,53.2152,298.5593,210.6308,149.4483,0.0018251,0.00035975,0.0,0 STARLINK-3815,1 52338U 22045H   23101.80194636  .00035975  00000-0  18251-2 0  9996,2 52338  53.2152 298.5593 0003498 210.6308 149.4483 15.16618276 55215,6894.207,94.948,518.484,513.66,0.0
52338.0,STARLINK-3815,PAYLOAD,2023-04-11 22:24:35,15.16626213,0.0003468,53.2153,297.9604,211.3351,148.7438,0.0017529,0.0003454,0.0,0 STARLINK-3815,1 52338U 22045H   23101.93374599  .00034540  00000-0  17529-2 0  9992,2 52338  53.2153 297.9604 0003468 211.3351 148.7438 15.16626213 55239,6894.183,94.948,518.439,513.657,0.0
52338.0,STARLINK-3815,PAYLOAD,2023-04-12 23:42:52,15.16708063,0.000333,53.2155,293.1697,217.7977,142.2785,0.0019491,0.00038553,0.0,0 STARLINK-3815,1 52338U 22045H   23102.98810990  .00038553  00000-0  19491-2 0  9996,2 52338  53.2155 293.1697 0003330 217.7977 142.2785 15.16708063 55398,6893.935,94.942,518.096,513.504,0.0
52338.0,STARLINK-3815,PAYLOAD,2023-04-14 05:45:44,15.16808996,0.0003206,53.2156,287.48,224.751,135.3227,0.0021145,0.00041992,0.0,0 STARLINK-3815,1 52338U 22045H   23104.24009376  .00041992  00000-0  21145-2 0  9995,2 52338  53.2156 287.4800 0003206 224.7510 135.3227 15.16808996 55585,6893.629,94.936,517.704,513.284,0.0
52338.0,STARLINK-3815,PAYLOAD,2023-04-15 11:48:28,15.16914274,0.0003062,53.2161,281.7907,233.3573,126.7141,0.0022012,0.0004387,0.0,0 STARLINK-3815,1 52338U 22045H   23105.49199394  .00043870  00000-0  22012-2 0  9994,2 52338  53.2161 281.7907 0003062 233.3573 126.7141 15.16914274 55778,6893.31,94.93,517.286,513.064,0.0
52338.0,STARLINK-3815,PAYLOAD,2023-04-15 21:17:43,15.16951494,0.0003013,53.2164,279.9938,236.5182,123.5526,0.0023343,0.00046609,0.0,0 STARLINK-3815,1 52338U 22045H   23105.88731145  .00046609  00000-0  23343-2 0  9994,2 52338  53.2164 279.9938 0003013 236.5182 123.5526 15.16951494 55835,6893.197,94.927,517.139,512.985,0.0
52338.0,STARLINK-3815,PAYLOAD,2023-04-16 11:31:35,15.17005983,0.0002999,53.2164,277.298,240.7442,119.3254,0.0022004,0.0004397,0.0,0 STARLINK-3815,1 52338U 22045H   23106.48026935  .00043970  00000-0  22004-2 0  9996,2 52338  53.2164 277.2980 0002999 240.7442 119.3254 15.17005983 55926,6893.032,94.924,516.964,512.83,0.0
52338.0,STARLINK-3815,PAYLOAD,2023-04-16 21:00:48,15.17045129,0.0002945,53.2166,275.5009,243.4891,116.5802,0.0023329,0.00046707,0.0,0 STARLINK-3815,1 52338U 22045H   23106.87556229  .00046707  00000-0  23329-2 0  9995,2 52338  53.2166 275.5009 0002945 243.4891 116.5802 15.17045129 55980,6892.914,94.921,516.809,512.749,0.0
52338.0,STARLINK-3815,PAYLOAD,2023-04-17 11:14:36,15.17102806,0.000293,53.2167,272.805,247.9119,112.1565,0.0023166,0.00046453,0.0,0 STARLINK-3815,1 52338U 22045H   23107.46848290  .00046453  00000-0  23166-2 0  9990,2 52338  53.2167 272.8050 0002930 247.9119 112.1565 15.17102806 56078,6892.739,94.918,516.624,512.584,0.0
52338.0,STARLINK-3815,PAYLOAD,2023-04-17 20:43:48,15.17143207,0.0002919,53.217,271.0077,251.3177,108.7502,0.0025013,0.00050267,0.0,0 STARLINK-3815,1 52338U 22045H   23107.86375083  .00050267  00000-0  25013-2 0  9990,2 52338  53.2170 271.0077 0002919 251.3177 108.7502 15.17143207 56131,6892.617,94.915,516.494,512.47,0.0
52338.0,STARLINK-3815,PAYLOAD,2023-04-18 10:57:33,15.17200055,0.0002939,53.2172,268.3115,255.9121,104.1548,0.0023258,0.00046772,0.0,0 STARLINK-3815,1 52338U 22045H   23108.45663350  .00046772  00000-0  23258-2 0  9998,2 52338  53.2172 268.3115 0002939 255.9121 104.1548 15.17200055 56221,6892.444,94.912,516.335,512.284,0.0
